{
  "type": "FeatureCollection",
  "name": "fixplanet-religion-pilot-800",
  "properties": {
    "year": 800,
    "author": "Fix Planet schematic reconstruction",
    "note": "Original artwork. Not a census. Americas/Oceania omitted."
  },
  "features": [
    {
      "type": "Feature",
      "properties": {
        "id": "local_trad",
        "style": "fill",
        "year": 800
      },
      "geometry": {
        "type": "MultiPolygon",
        "coordinates": [
          [
            [
              [
                45.40581320741452,
                11.037186173822906
              ],
              [
                45.84956747309094,
                9.5576465376942
              ],
              [
                46.0,
                8.0
              ],
              [
                45.84956747309094,
                6.442353462305798
              ],
              [
                45.40581320741452,
                4.962813826177097
              ],
              [
                44.69098889480818,
                3.6355713869888637
              ],
              [
                43.740938811152404,
                2.527179622723791
              ],
              [
                42.60330243470535,
                1.693217924683065
              ],
              [
                41.33512560373788,
                1.1755046147272328
              ],
              [
                40.0,
                1.0
              ],
              [
                38.664874396262114,
                1.1755046147272346
              ],
              [
                37.39669756529465,
                1.6932179246830668
              ],
              [
                36.259061188847596,
                2.527179622723792
              ],
              [
                35.30901110519182,
                3.635571386988863
              ],
              [
                34.59418679258548,
                4.9628138261770935
              ],
              [
                34.15043252690906,
                6.442353462305803
              ],
              [
                34.0,
                8.0
              ],
              [
                34.15043252690906,
                9.557646537694199
              ],
              [
                34.59418679258549,
                11.037186173822908
              ],
              [
                35.30901110519182,
                12.364428613011137
              ],
              [
                36.259061188847596,
                13.472820377276209
              ],
              [
                37.39669756529465,
                14.306782075316935
              ],
              [
                38.664874396262114,
                14.824495385272765
              ],
              [
                39.759667327371886,
                14.96840784642443
              ],
              [
                38.18168517531971,
                16.388591783271394
              ],
              [
                36.990311320975806,
                18.095046347941977
              ],
              [
                36.25072087818177,
                19.997311594393175
              ],
              [
                36.0,
                22.0
              ],
              [
                36.25072087818177,
                24.002688405606825
              ],
              [
                36.990311320975806,
                25.904953652058023
              ],
              [
                38.18168517531971,
                27.611408216728606
              ],
              [
                39.76510198141266,
                29.03648334221227
              ],
              [
                41.66116260882442,
                30.108719811121773
              ],
              [
                43.77479066043686,
                30.774351209636414
              ],
              [
                46.0,
                31.0
              ],
              [
                48.22520933956314,
                30.774351209636414
              ],
              [
                50.33883739117558,
                30.108719811121773
              ],
              [
                52.23489801858734,
                29.036483342212268
              ],
              [
                53.8183148246803,
                27.611408216728602
              ],
              [
                55.009688679024194,
                25.904953652058023
              ],
              [
                55.74927912181823,
                24.00268840560683
              ],
              [
                56.0,
                22.0
              ],
              [
                55.74927912181823,
                19.997311594393167
              ],
              [
                55.009688679024194,
                18.09504634794198
              ],
              [
                53.8183148246803,
                16.388591783271398
              ],
              [
                52.23489801858733,
                14.96351665778773
              ],
              [
                50.33883739117558,
                13.891280188878227
              ],
              [
                48.225209339563136,
                13.225648790363586
              ],
              [
                46.0,
                13.0
              ],
              [
                43.96974547310796,
                13.205879271661392
              ],
              [
                44.69098889480818,
                12.364428613011135
              ],
              [
                45.40581320741452,
                11.037186173822906
              ]
            ]
          ],
          [
            [
              [
                115.94564075455241,
                6.141612179553929
              ],
              [
                113.72885722602227,
                4.399853692851671
              ],
              [
                111.0743723476458,
                3.089342453073389
              ],
              [
                108.1152930753884,
                2.275792965999937
              ],
              [
                105.0,
                2.0
              ],
              [
                101.88470692461159,
                2.2757929659999405
              ],
              [
                98.92562765235418,
                3.0893424530733906
              ],
              [
                96.27114277397773,
                4.399853692851673
              ],
              [
                94.05435924544759,
                6.141612179553928
              ],
              [
                92.38643584936614,
                8.227278869706861
              ],
              [
                91.35100922945446,
                10.552269726480548
              ],
              [
                91.0,
                13.000000000000002
              ],
              [
                91.35100922945446,
                15.447730273519454
              ],
              [
                92.38643584936614,
                17.772721130293142
              ],
              [
                94.05435924544759,
                19.858387820446072
              ],
              [
                96.27114277397773,
                21.60014630714833
              ],
              [
                98.9256276523542,
                22.91065754692661
              ],
              [
                101.8847069246116,
                23.72420703400006
              ],
              [
                105.0,
                24.0
              ],
              [
                108.11529307538841,
                23.72420703400006
              ],
              [
                111.07437234764582,
                22.91065754692661
              ],
              [
                113.72885722602227,
                21.60014630714833
              ],
              [
                115.94564075455241,
                19.85838782044607
              ],
              [
                117.61356415063386,
                17.77272113029314
              ],
              [
                118.64899077054554,
                15.447730273519458
              ],
              [
                119.0,
                13.0
              ],
              [
                118.64899077054552,
                10.552269726480539
              ],
              [
                117.61356415063388,
                8.227278869706868
              ],
              [
                115.94564075455241,
                6.141612179553929
              ]
            ]
          ],
          [
            [
              [
                141.8183148246803,
                29.765101981412663
              ],
              [
                140.23489801858733,
                28.1816851753197
              ],
              [
                138.3388373911756,
                26.990311320975806
              ],
              [
                136.22520933956312,
                26.25072087818176
              ],
              [
                134.0,
                26.0
              ],
              [
                131.77479066043685,
                26.250720878181763
              ],
              [
                129.6611626088244,
                26.99031132097581
              ],
              [
                127.76510198141267,
                28.181685175319704
              ],
              [
                126.1816851753197,
                29.765101981412663
              ],
              [
                124.9903113209758,
                31.66116260882442
              ],
              [
                124.25072087818177,
                33.774790660436864
              ],
              [
                124.0,
                36.0
              ],
              [
                124.25072087818177,
                38.22520933956314
              ],
              [
                124.9903113209758,
                40.33883739117558
              ],
              [
                126.1816851753197,
                42.23489801858734
              ],
              [
                127.76510198141267,
                43.8183148246803
              ],
              [
                129.6611626088244,
                45.009688679024194
              ],
              [
                131.77479066043685,
                45.74927912181823
              ],
              [
                134.0,
                46.0
              ],
              [
                136.22520933956315,
                45.74927912181823
              ],
              [
                138.3388373911756,
                45.009688679024194
              ],
              [
                140.23489801858733,
                43.8183148246803
              ],
              [
                141.8183148246803,
                42.23489801858734
              ],
              [
                143.00968867902418,
                40.33883739117558
              ],
              [
                143.74927912181823,
                38.22520933956314
              ],
              [
                144.0,
                36.0
              ],
              [
                143.74927912181823,
                33.77479066043686
              ],
              [
                143.00968867902418,
                31.661162608824426
              ],
              [
                141.8183148246803,
                29.765101981412663
              ]
            ]
          ],
          [
            [
              [
                112.83692226365724,
                44.51812237769519
              ],
              [
                106.1865716780668,
                42.61802221038364
              ],
              [
                98.22311704293743,
                41.188373585170964
              ],
              [
                89.34587922616515,
                40.300865053818114
              ],
              [
                79.99999999999999,
                40.0
              ],
              [
                70.65412077383479,
                40.300865053818114
              ],
              [
                61.776882957062554,
                41.18837358517097
              ],
              [
                53.81342832193319,
                42.61802221038364
              ],
              [
                47.16307773634276,
                44.51812237769519
              ],
              [
                45.97394490732032,
                45.05883496513637
              ],
              [
                42.4456328669144,
                43.49069628051152
              ],
              [
                35.61981460823209,
                41.584498113561295
              ],
              [
                28.01075362242728,
                40.40115340509082
              ],
              [
                19.999999999999993,
                40.0
              ],
              [
                11.989246377572675,
                40.401153405090824
              ],
              [
                4.380185391767903,
                41.584498113561295
              ],
              [
                -2.445632866914412,
                43.49069628051153
              ],
              [
                -8.145933368849064,
                46.02416317026026
              ],
              [
                -12.434879244487092,
                49.05786017411907
              ],
              [
                -15.097404838545657,
                52.43966505669898
              ],
              [
                -16.0,
                56.0
              ],
              [
                -15.097404838545657,
                59.56033494330102
              ],
              [
                -12.434879244487085,
                62.94213982588093
              ],
              [
                -8.145933368849061,
                65.97583682973975
              ],
              [
                -2.445632866914405,
                68.50930371948849
              ],
              [
                4.38018539176791,
                70.4155018864387
              ],
              [
                11.989246377572684,
                71.59884659490918
              ],
              [
                20.000000000000004,
                72.0
              ],
              [
                28.01075362242732,
                71.59884659490918
              ],
              [
                35.61981460823209,
                70.4155018864387
              ],
              [
                42.44563286691441,
                68.50930371948847
              ],
              [
                48.14593336884907,
                65.97583682973973
              ],
              [
                52.43487924448709,
                62.94213982588093
              ],
              [
                53.69079479118939,
                61.34693963797527
              ],
              [
                53.813428321933195,
                61.38197778961636
              ],
              [
                61.77688295706256,
                62.81162641482903
              ],
              [
                70.65412077383479,
                63.699134946181886
              ],
              [
                80.0,
                64.0
              ],
              [
                89.34587922616521,
                63.699134946181886
              ],
              [
                98.22311704293745,
                62.81162641482903
              ],
              [
                106.18657167806681,
                61.38197778961636
              ],
              [
                112.83692226365724,
                59.4818776223048
              ],
              [
                117.8406924519016,
                57.2066048694107
              ],
              [
                120.94697231163659,
                54.67025120747577
              ],
              [
                122.0,
                52.0
              ],
              [
                120.94697231163659,
                49.32974879252423
              ],
              [
                117.84069245190162,
                46.79339513058931
              ],
              [
                112.83692226365724,
                44.51812237769519
              ]
            ]
          ]
        ]
      }
    },
    {
      "type": "Feature",
      "properties": {
        "id": "african_trad",
        "style": "fill",
        "year": 800
      },
      "geometry": {
        "type": "Polygon",
        "coordinates": [
          [
            [
              54.0,
              2.0
            ],
            [
              53.09740483854565,
              9.56571175451469
            ],
            [
              50.43487924448709,
              16.752047129996974
            ],
            [
              46.14593336884907,
              23.198653263196938
            ],
            [
              40.44563286691441,
              28.582270403913014
            ],
            [
              33.61981460823209,
              32.63294150868225
            ],
            [
              26.01075362242732,
              35.147549014182005
            ],
            [
              18.000000000000004,
              36.0
            ],
            [
              9.989246377572684,
              35.147549014182005
            ],
            [
              2.3801853917679097,
              32.63294150868225
            ],
            [
              -4.445632866914405,
              28.582270403913018
            ],
            [
              -10.145933368849061,
              23.198653263196952
            ],
            [
              -14.434879244487085,
              16.75204712999698
            ],
            [
              -17.097404838545657,
              9.565711754514679
            ],
            [
              -18.0,
              2.000000000000004
            ],
            [
              -17.097404838545657,
              -5.565711754514671
            ],
            [
              -14.434879244487092,
              -12.752047129996972
            ],
            [
              -10.145933368849064,
              -19.19865326319695
            ],
            [
              -4.445632866914412,
              -24.58227040391301
            ],
            [
              2.3801853917679026,
              -28.632941508682247
            ],
            [
              9.989246377572675,
              -31.147549014182005
            ],
            [
              17.999999999999993,
              -32.0
            ],
            [
              26.01075362242728,
              -31.14754901418201
            ],
            [
              33.61981460823209,
              -28.632941508682254
            ],
            [
              40.4456328669144,
              -24.582270403913018
            ],
            [
              46.14593336884907,
              -19.198653263196945
            ],
            [
              50.4348792444871,
              -12.752047129996955
            ],
            [
              53.09740483854564,
              -5.565711754514698
            ],
            [
              54.0,
              2.0
            ]
          ]
        ]
      }
    },
    {
      "type": "Feature",
      "properties": {
        "id": "hindu",
        "style": "fill",
        "year": 800
      },
      "geometry": {
        "type": "Polygon",
        "coordinates": [
          [
            [
              96.0,
              21.0
            ],
            [
              95.59884659490918,
              24.67159541027919
            ],
            [
              94.4155018864387,
              28.15908169543971
            ],
            [
              92.50930371948847,
              31.287581730669103
            ],
            [
              89.97583682973973,
              33.90021946072249
            ],
            [
              86.94213982588093,
              35.865986320389915
            ],
            [
              83.56033494330103,
              37.08631055100009
            ],
            [
              80.0,
              37.5
            ],
            [
              76.43966505669897,
              37.08631055100009
            ],
            [
              73.05786017411907,
              35.865986320389915
            ],
            [
              70.02416317026027,
              33.9002194607225
            ],
            [
              67.49069628051153,
              31.28758173066911
            ],
            [
              65.5844981135613,
              28.15908169543971
            ],
            [
              64.40115340509082,
              24.67159541027918
            ],
            [
              64.0,
              21.000000000000004
            ],
            [
              64.40115340509082,
              17.328404589720822
            ],
            [
              65.5844981135613,
              13.840918304560294
            ],
            [
              67.49069628051153,
              10.712418269330891
            ],
            [
              70.02416317026027,
              8.09978053927751
            ],
            [
              73.05786017411907,
              6.134013679610085
            ],
            [
              76.43966505669897,
              4.913689448999911
            ],
            [
              80.0,
              4.5
            ],
            [
              83.56033494330102,
              4.913689448999907
            ],
            [
              86.94213982588093,
              6.1340136796100815
            ],
            [
              89.97583682973973,
              8.099780539277507
            ],
            [
              92.50930371948847,
              10.712418269330893
            ],
            [
              94.4155018864387,
              13.8409183045603
            ],
            [
              95.59884659490918,
              17.328404589720808
            ],
            [
              96.0,
              21.0
            ]
          ]
        ]
      }
    },
    {
      "type": "Feature",
      "properties": {
        "id": "chinese_imperial",
        "style": "fill",
        "year": 800
      },
      "geometry": {
        "type": "Polygon",
        "coordinates": [
          [
            [
              126.0,
              32.5
            ],
            [
              125.64899077054554,
              35.17025120747577
            ],
            [
              124.61356415063386,
              37.7066048694107
            ],
            [
              122.94564075455241,
              39.9818776223048
            ],
            [
              120.72885722602227,
              41.88197778961636
            ],
            [
              118.07437234764582,
              43.31162641482903
            ],
            [
              115.11529307538841,
              44.199134946181886
            ],
            [
              112.0,
              44.5
            ],
            [
              108.8847069246116,
              44.199134946181886
            ],
            [
              105.9256276523542,
              43.31162641482903
            ],
            [
              103.27114277397773,
              41.88197778961636
            ],
            [
              101.05435924544759,
              39.98187762230481
            ],
            [
              99.38643584936614,
              37.7066048694107
            ],
            [
              98.35100922945446,
              35.17025120747577
            ],
            [
              98.0,
              32.5
            ],
            [
              98.35100922945446,
              29.829748792524235
            ],
            [
              99.38643584936614,
              27.293395130589303
            ],
            [
              101.05435924544759,
              25.018122377695192
            ],
            [
              103.27114277397773,
              23.118022210383643
            ],
            [
              105.92562765235418,
              21.68837358517097
            ],
            [
              108.88470692461159,
              20.800865053818114
            ],
            [
              112.0,
              20.5
            ],
            [
              115.1152930753884,
              20.800865053818114
            ],
            [
              118.0743723476458,
              21.688373585170968
            ],
            [
              120.72885722602227,
              23.118022210383643
            ],
            [
              122.94564075455241,
              25.018122377695196
            ],
            [
              124.61356415063388,
              27.29339513058931
            ],
            [
              125.64899077054552,
              29.829748792524224
            ],
            [
              126.0,
              32.5
            ]
          ]
        ]
      }
    },
    {
      "type": "Feature",
      "properties": {
        "id": "buddhist",
        "style": "fill",
        "year": 800
      },
      "geometry": {
        "type": "MultiPolygon",
        "coordinates": [
          [
            [
              [
                81.95093037194886,
                6.103624475539039
              ],
              [
                81.69758368297397,
                5.723604442076728
              ],
              [
                81.3942139825881,
                5.437674717034193
              ],
              [
                81.05603349433011,
                5.260173010763623
              ],
              [
                80.7,
                5.199999999999999
              ],
              [
                80.3439665056699,
                5.260173010763623
              ],
              [
                80.0057860174119,
                5.437674717034194
              ],
              [
                79.70241631702604,
                5.723604442076729
              ],
              [
                79.44906962805115,
                6.103624475539038
              ],
              [
                79.25844981135613,
                6.5586790261178605
              ],
              [
                79.14011534050908,
                7.065949758504846
              ],
              [
                79.10000000000001,
                7.6
              ],
              [
                79.14011534050908,
                8.134050241495153
              ],
              [
                79.25844981135613,
                8.64132097388214
              ],
              [
                79.44906962805115,
                9.09637552446096
              ],
              [
                79.70241631702604,
                9.476395557923272
              ],
              [
                80.0057860174119,
                9.762325282965806
              ],
              [
                80.3439665056699,
                9.939826989236376
              ],
              [
                80.7,
                10.0
              ],
              [
                81.05603349433011,
                9.939826989236376
              ],
              [
                81.3942139825881,
                9.762325282965806
              ],
              [
                81.69758368297397,
                9.47639555792327
              ],
              [
                81.95093037194886,
                9.09637552446096
              ],
              [
                82.14155018864388,
                8.64132097388214
              ],
              [
                82.25988465949092,
                8.134050241495155
              ],
              [
                82.3,
                7.6
              ],
              [
                82.25988465949092,
                7.0659497585048445
              ],
              [
                82.14155018864388,
                6.558679026117861
              ],
              [
                81.95093037194886,
                6.103624475539039
              ]
            ]
          ],
          [
            [
              [
                104.30007315357416,
                15.194295891635699
              ],
              [
                103.42919391022303,
                14.481758328893864
              ],
              [
                102.38636056514657,
                13.945640094439113
              ],
              [
                101.22386513675973,
                13.612824395181793
              ],
              [
                100.0,
                13.5
              ],
              [
                98.77613486324027,
                13.612824395181793
              ],
              [
                97.61363943485343,
                13.945640094439113
              ],
              [
                96.57080608977697,
                14.481758328893866
              ],
              [
                95.69992684642584,
                15.194295891635697
              ],
              [
                95.04467122653669,
                16.04752317397099
              ],
              [
                94.63789648299996,
                16.998655797196587
              ],
              [
                94.5,
                18.0
              ],
              [
                94.63789648299996,
                19.001344202803413
              ],
              [
                95.04467122653669,
                19.952476826029013
              ],
              [
                95.69992684642584,
                20.805704108364303
              ],
              [
                96.57080608977697,
                21.518241671106136
              ],
              [
                97.61363943485343,
                22.054359905560887
              ],
              [
                98.77613486324027,
                22.387175604818207
              ],
              [
                100.0,
                22.5
              ],
              [
                101.22386513675973,
                22.387175604818207
              ],
              [
                102.38636056514657,
                22.054359905560887
              ],
              [
                103.42919391022303,
                21.518241671106132
              ],
              [
                104.30007315357416,
                20.8057041083643
              ],
              [
                104.95532877346331,
                19.952476826029013
              ],
              [
                105.36210351700004,
                19.001344202803416
              ],
              [
                105.5,
                18.0
              ],
              [
                105.36210351700004,
                16.998655797196584
              ],
              [
                104.95532877346331,
                16.04752317397099
              ],
              [
                104.30007315357416,
                15.194295891635699
              ]
            ]
          ],
          [
            [
              [
                88.86373611851022,
                22.506040792565067
              ],
              [
                87.6761735139405,
                21.87267407012788
              ],
              [
                86.25412804338168,
                21.396124528390324
              ],
              [
                84.66890700467235,
                21.100288351272706
              ],
              [
                83.0,
                21.0
              ],
              [
                81.33109299532764,
                21.100288351272706
              ],
              [
                79.74587195661832,
                21.396124528390324
              ],
              [
                78.3238264860595,
                21.872674070127882
              ],
              [
                77.13626388148978,
                22.506040792565067
              ],
              [
                76.24273349073185,
                23.264465043529768
              ],
              [
                75.68804065863633,
                24.109916264174746
              ],
              [
                75.5,
                25.0
              ],
              [
                75.68804065863633,
                25.890083735825257
              ],
              [
                76.24273349073185,
                26.735534956470232
              ],
              [
                77.13626388148978,
                27.493959207434937
              ],
              [
                78.3238264860595,
                28.12732592987212
              ],
              [
                79.74587195661832,
                28.603875471609676
              ],
              [
                81.33109299532764,
                28.899711648727294
              ],
              [
                83.0,
                29.0
              ],
              [
                84.66890700467236,
                28.899711648727294
              ],
              [
                86.25412804338168,
                28.603875471609676
              ],
              [
                87.6761735139405,
                28.127325929872118
              ],
              [
                88.86373611851022,
                27.493959207434933
              ],
              [
                89.75726650926815,
                26.735534956470232
              ],
              [
                90.31195934136367,
                25.890083735825257
              ],
              [
                90.5,
                25.0
              ],
              [
                90.31195934136367,
                24.109916264174743
              ],
              [
                89.75726650926815,
                23.26446504352977
              ],
              [
                88.86373611851022,
                22.506040792565067
              ]
            ]
          ],
          [
            [
              [
                99.30007315357416,
                27.506040792565067
              ],
              [
                98.42919391022303,
                26.87267407012788
              ],
              [
                97.38636056514657,
                26.396124528390324
              ],
              [
                96.22386513675973,
                26.100288351272706
              ],
              [
                95.0,
                26.0
              ],
              [
                93.77613486324027,
                26.100288351272706
              ],
              [
                92.61363943485343,
                26.396124528390324
              ],
              [
                91.57080608977697,
                26.872674070127882
              ],
              [
                90.69992684642584,
                27.506040792565067
              ],
              [
                90.04467122653669,
                28.264465043529768
              ],
              [
                89.63789648299996,
                29.109916264174746
              ],
              [
                89.5,
                30.0
              ],
              [
                89.63789648299996,
                30.890083735825257
              ],
              [
                90.04467122653669,
                31.735534956470232
              ],
              [
                90.69992684642584,
                32.49395920743493
              ],
              [
                91.57080608977697,
                33.12732592987212
              ],
              [
                92.61363943485343,
                33.603875471609676
              ],
              [
                93.77613486324027,
                33.8997116487273
              ],
              [
                95.0,
                34.0
              ],
              [
                96.22386513675973,
                33.8997116487273
              ],
              [
                97.38636056514657,
                33.603875471609676
              ],
              [
                98.42919391022303,
                33.12732592987212
              ],
              [
                99.30007315357416,
                32.49395920743493
              ],
              [
                99.95532877346331,
                31.735534956470232
              ],
              [
                100.36210351700004,
                30.890083735825257
              ],
              [
                100.5,
                30.0
              ],
              [
                100.36210351700004,
                29.109916264174743
              ],
              [
                99.95532877346331,
                28.26446504352977
              ],
              [
                99.30007315357416,
                27.506040792565067
              ]
            ]
          ],
          [
            [
              [
                75.0,
                33.0
              ],
              [
                74.87463956090912,
                32.33243719813105
              ],
              [
                74.50484433951209,
                31.69834878264733
              ],
              [
                73.90915741234015,
                31.129530594423798
              ],
              [
                73.11744900929367,
                30.65450555259591
              ],
              [
                72.1694186955878,
                30.29709339629274
              ],
              [
                71.11260466978156,
                30.07521626345453
              ],
              [
                70.0,
                30.0
              ],
              [
                68.88739533021842,
                30.07521626345453
              ],
              [
                67.8305813044122,
                30.297093396292745
              ],
              [
                66.88255099070633,
                30.65450555259591
              ],
              [
                66.09084258765985,
                31.129530594423798
              ],
              [
                65.72521081526847,
                31.47867037379752
              ],
              [
                65.17975569573588,
                31.596124528390327
              ],
              [
                63.947316287918234,
                32.07267407012788
              ],
              [
                62.91809536395781,
                32.70604079256507
              ],
              [
                62.14370235863427,
                33.46446504352977
              ],
              [
                61.662968570818144,
                34.309916264174745
              ],
              [
                61.5,
                35.2
              ],
              [
                61.662968570818144,
                36.09008373582526
              ],
              [
                62.14370235863428,
                36.935534956470235
              ],
              [
                62.91809536395781,
                37.693959207434936
              ],
              [
                63.947316287918234,
                38.327325929872124
              ],
              [
                65.17975569573588,
                38.80387547160968
              ],
              [
                66.55361392928396,
                39.0997116487273
              ],
              [
                68.0,
                39.2
              ],
              [
                69.44638607071604,
                39.0997116487273
              ],
              [
                70.82024430426412,
                38.80387547160968
              ],
              [
                71.12021104153422,
                38.687886798839386
              ],
              [
                71.0,
                39.2
              ],
              [
                71.12536043909088,
                39.734050241495154
              ],
              [
                71.49515566048791,
                40.24132097388214
              ],
              [
                72.09084258765985,
                40.69637552446096
              ],
              [
                72.88255099070633,
                41.07639555792328
              ],
              [
                73.8305813044122,
                41.362325282965806
              ],
              [
                74.08676056577893,
                41.40535296323248
              ],
              [
                74.96351665778774,
                41.8704694055762
              ],
              [
                76.3885917832714,
                42.34549444740409
              ],
              [
                78.09504634794197,
                42.702906603707255
              ],
              [
                79.99731159439317,
                42.92478373654547
              ],
              [
                82.0,
                43.0
              ],
              [
                84.00268840560683,
                42.92478373654547
              ],
              [
                85.90495365205803,
                42.702906603707255
              ],
              [
                87.6114082167286,
                42.34549444740409
              ],
              [
                89.03648334221226,
                41.8704694055762
              ],
              [
                90.10871981112177,
                41.30165121735268
              ],
              [
                90.77435120963641,
                40.66756280186895
              ],
              [
                91.0,
                40.0
              ],
              [
                90.77435120963641,
                39.33243719813105
              ],
              [
                90.10871981112177,
                38.69834878264733
              ],
              [
                89.03648334221226,
                38.1295305944238
              ],
              [
                87.6114082167286,
                37.65450555259591
              ],
              [
                85.90495365205803,
                37.297093396292745
              ],
              [
                84.00268840560682,
                37.07521626345453
              ],
              [
                82.0,
                37.0
              ],
              [
                79.99731159439317,
                37.07521626345453
              ],
              [
                78.76893712937576,
                37.218491868609064
              ],
              [
                78.1694186955878,
                37.0376747170342
              ],
              [
                77.11260466978156,
                36.860173010763624
              ],
              [
                76.0,
                36.800000000000004
              ],
              [
                74.88739533021842,
                36.860173010763624
              ],
              [
                73.8305813044122,
                37.0376747170342
              ],
              [
                73.7170425661142,
                37.07191845349904
              ],
              [
                73.85629764136573,
                36.935534956470235
              ],
              [
                74.33703142918185,
                36.09008373582526
              ],
              [
                74.5,
                35.2
              ],
              [
                74.36071670814471,
                34.439277904136894
              ],
              [
                74.50484433951209,
                34.30165121735268
              ],
              [
                74.87463956090912,
                33.66756280186895
              ],
              [
                75.0,
                33.0
              ]
            ]
          ]
        ]
      }
    },
    {
      "type": "Feature",
      "properties": {
        "id": "christian",
        "style": "fill",
        "year": 800
      },
      "geometry": {
        "type": "MultiPolygon",
        "coordinates": [
          [
            [
              [
                38.0,
                18.4
              ],
              [
                39.15710885657283,
                18.244553055527305
              ],
              [
                40.2561954434113,
                17.786006980994998
              ],
              [
                41.24214696966541,
                17.047355191301783
              ],
              [
                42.06552370883375,
                16.065636771524147
              ],
              [
                42.68503811309258,
                14.89007918252886
              ],
              [
                43.06962514334548,
                13.579629790529149
              ],
              [
                43.2,
                12.2
              ],
              [
                43.06962514334548,
                10.820370209470848
              ],
              [
                42.68503811309258,
                9.509920817471142
              ],
              [
                42.06552370883375,
                8.334363228475851
              ],
              [
                41.24214696966541,
                7.352644808698214
              ],
              [
                40.2561954434113,
                6.613993019005
              ],
              [
                39.157108856572826,
                6.155446944472692
              ],
              [
                38.0,
                5.999999999999999
              ],
              [
                36.84289114342717,
                6.1554469444726925
              ],
              [
                35.7438045565887,
                6.613993019005001
              ],
              [
                34.75785303033459,
                7.352644808698215
              ],
              [
                33.93447629116625,
                8.33436322847585
              ],
              [
                33.31496188690742,
                9.509920817471139
              ],
              [
                32.93037485665452,
                10.820370209470854
              ],
              [
                32.8,
                12.2
              ],
              [
                32.864562129213894,
                12.883197965383118
              ],
              [
                32.2,
                12.8
              ],
              [
                31.398924637757272,
                12.900288351272707
              ],
              [
                30.638018539176795,
                13.196124528390325
              ],
              [
                29.95543671330856,
                13.672674070127883
              ],
              [
                29.385406663115095,
                14.306040792565065
              ],
              [
                28.956512075551295,
                15.064465043529768
              ],
              [
                28.69025951614544,
                15.909916264174745
              ],
              [
                28.6,
                16.8
              ],
              [
                28.69025951614544,
                17.690083735825258
              ],
              [
                28.956512075551295,
                18.535534956470233
              ],
              [
                29.3854066631151,
                19.293959207434938
              ],
              [
                29.95543671330856,
                19.92732592987212
              ],
              [
                30.638018539176795,
                20.403875471609677
              ],
              [
                31.398924637757272,
                20.699711648727295
              ],
              [
                32.2,
                20.8
              ],
              [
                33.00107536224274,
                20.699711648727295
              ],
              [
                33.761981460823215,
                20.403875471609677
              ],
              [
                34.44456328669144,
                19.92732592987212
              ],
              [
                35.01459333688491,
                19.293959207434934
              ],
              [
                35.44348792444871,
                18.535534956470233
              ],
              [
                35.691801294607,
                17.747047355181945
              ],
              [
                35.7438045565887,
                17.786006980994998
              ],
              [
                36.84289114342717,
                18.244553055527305
              ],
              [
                38.0,
                18.4
              ]
            ]
          ],
          [
            [
              [
                25.995967391589758,
                48.07936562720005
              ],
              [
                29.0,
                48.3
              ],
              [
                32.00403260841024,
                48.07936562720005
              ],
              [
                34.85743047808704,
                47.42852603754129
              ],
              [
                37.4171123250929,
                46.38011704571866
              ],
              [
                39.554725013318404,
                44.98671025635686
              ],
              [
                41.16307971668266,
                43.31817690423451
              ],
              [
                42.16152681445462,
                41.45818421881557
              ],
              [
                42.5,
                39.5
              ],
              [
                42.16152681445462,
                37.54181578118443
              ],
              [
                41.16307971668266,
                35.681823095765495
              ],
              [
                39.554725013318404,
                34.01328974364314
              ],
              [
                37.4171123250929,
                32.61988295428134
              ],
              [
                34.85743047808703,
                31.57147396245871
              ],
              [
                32.00403260841023,
                30.92063437279995
              ],
              [
                28.999999999999996,
                30.7
              ],
              [
                25.99596739158975,
                30.920634372799952
              ],
              [
                23.142569521912964,
                31.57147396245871
              ],
              [
                20.582887674907095,
                32.61988295428134
              ],
              [
                18.4452749866816,
                34.01328974364314
              ],
              [
                16.83692028331734,
                35.68182309576549
              ],
              [
                16.429177291205296,
                36.441401629822636
              ],
              [
                16.057846660763975,
                36.25360547184404
              ],
              [
                14.324671658441769,
                35.76547577959997
              ],
              [
                12.499999999999998,
                35.6
              ],
              [
                10.67532834155822,
                35.76547577959997
              ],
              [
                8.942153339236022,
                36.25360547184404
              ],
              [
                7.387383624758384,
                37.039912215711006
              ],
              [
                6.088981843762158,
                38.08496730773236
              ],
              [
                5.112055283200164,
                39.33636732182412
              ],
              [
                4.599488213769099,
                40.51537886687872
              ],
              [
                3.199999999999999,
                40.4
              ],
              [
                1.3753283415582207,
                40.550432526909056
              ],
              [
                -0.35784666076397764,
                40.99418679258548
              ],
              [
                -1.9126163752416154,
                41.70901110519182
              ],
              [
                -3.2110181562378415,
                42.659061188847595
              ],
              [
                -4.187944716799836,
                43.79669756529465
              ],
              [
                -4.794408879890954,
                45.06487439626211
              ],
              [
                -4.999999999999999,
                46.4
              ],
              [
                -4.90659217433609,
                47.0065980844271
              ],
              [
                -5.0,
                47.6
              ],
              [
                -4.7618151657273255,
                49.11314235090294
              ],
              [
                -4.702701519930041,
                49.23406574434269
              ],
              [
                -5.265523708833754,
                49.731946911449825
              ],
              [
                -5.8850381130925795,
                50.604134800059235
              ],
              [
                -6.2696251433454835,
                51.576403703800956
              ],
              [
                -6.4,
                52.6
              ],
              [
                -6.2696251433454835,
                53.62359629619905
              ],
              [
                -5.8850381130925795,
                54.59586519994077
              ],
              [
                -5.265523708833753,
                55.46805308855018
              ],
              [
                -4.442146969665414,
                56.19642481935294
              ],
              [
                -3.4561954434113016,
                56.74445679235113
              ],
              [
                -2.3571088565728346,
                57.08466839603639
              ],
              [
                -1.1999999999999997,
                57.2
              ],
              [
                -0.042891143427164824,
                57.08466839603639
              ],
              [
                1.0561954434113028,
                56.74445679235113
              ],
              [
                2.0421469696654144,
                56.19642481935294
              ],
              [
                2.865523708833755,
                55.46805308855018
              ],
              [
                3.485038113092579,
                54.59586519994077
              ],
              [
                3.591496574830356,
                54.326729103958144
              ],
              [
                4.500000000000001,
                54.4
              ],
              [
                6.613948872584987,
                54.229509802836404
              ],
              [
                7.651037232133254,
                53.969754876175976
              ],
              [
                8.0,
                54.0
              ],
              [
                9.446386070716043,
                53.87463956090912
              ],
              [
                10.82024430426413,
                53.5048443395121
              ],
              [
                12.05268371208177,
                52.90915741234015
              ],
              [
                13.081904636042193,
                52.117449009293665
              ],
              [
                13.856297641365725,
                51.169418695587794
              ],
              [
                14.337031429181852,
                50.112604669781575
              ],
              [
                14.5,
                49.0
              ],
              [
                14.441641635049566,
                48.60158091195925
              ],
              [
                16.05784666076398,
                48.146394528155966
              ],
              [
                16.81791201761713,
                47.76200029259287
              ],
              [
                16.947316287918234,
                47.865523708833756
              ],
              [
                18.17975569573587,
                48.48503811309258
              ],
              [
                19.553613929283955,
                48.86962514334548
              ],
              [
                21.0,
                49.0
              ],
              [
                22.446386070716045,
                48.86962514334548
              ],
              [
                23.82024430426413,
                48.48503811309258
              ],
              [
                25.05268371208177,
                47.86552370883375
              ],
              [
                25.05396212169061,
                47.864500981146676
              ],
              [
                25.995967391589758,
                48.07936562720005
              ]
            ]
          ]
        ]
      }
    },
    {
      "type": "Feature",
      "properties": {
        "id": "islam",
        "style": "fill",
        "year": 800
      },
      "geometry": {
        "type": "Polygon",
        "coordinates": [
          [
            [
              29.4423534623058,
              34.51948096770913
            ],
            [
              31.0,
              34.7
            ],
            [
              32.027485310407116,
              34.5809225010686
            ],
            [
              32.413993019005005,
              35.54297219123482
            ],
            [
              33.15264480869822,
              36.56684493003716
            ],
            [
              34.134363228475856,
              37.42189000532736
            ],
            [
              35.30992081747114,
              38.06523188667307
            ],
            [
              36.62037020947085,
              38.46461072578185
            ],
            [
              38.0,
              38.6
            ],
            [
              39.37962979052915,
              38.46461072578185
            ],
            [
              40.69007918252886,
              38.06523188667307
            ],
            [
              41.31540748355169,
              37.723011403895555
            ],
            [
              41.89703280627359,
              37.885827006061305
            ],
            [
              42.663443504213575,
              38.71020005821559
            ],
            [
              44.95939787304837,
              40.26194852818669
            ],
            [
              47.708685782795406,
              41.42949490544371
            ],
            [
              50.77344645763344,
              42.154293539381875
            ],
            [
              54.0,
              42.400000000000006
            ],
            [
              57.22655354236656,
              42.154293539381875
            ],
            [
              59.961319584223844,
              41.50753677708317
            ],
            [
              61.200336684200764,
              42.26552370883376
            ],
            [
              62.811988217500755,
              42.885038113092584
            ],
            [
              63.203880686761536,
              42.96892886021562
            ],
            [
              64.57684688234204,
              43.77825630182097
            ],
            [
              66.3781044783832,
              44.44542566025355
            ],
            [
              68.38605112741502,
              44.85959630821821
            ],
            [
              70.5,
              45.0
            ],
            [
              72.61394887258498,
              44.85959630821821
            ],
            [
              74.6218955216168,
              44.44542566025355
            ],
            [
              76.42315311765798,
              43.77825630182097
            ],
            [
              77.92739908344629,
              42.89154289040891
            ],
            [
              79.05920424507298,
              41.82974893905833
            ],
            [
              79.76181516572733,
              40.64611723015536
            ],
            [
              80.0,
              39.4
            ],
            [
              79.76181516572733,
              38.153882769844635
            ],
            [
              79.05920424507298,
              36.97025106094168
            ],
            [
              77.92739908344629,
              35.90845710959109
            ],
            [
              76.42315311765796,
              35.02174369817903
            ],
            [
              74.6218955216168,
              34.35457433974645
            ],
            [
              72.61394887258497,
              33.94040369178178
            ],
            [
              71.0192495056409,
              33.83448737502279
            ],
            [
              70.18801178249925,
              33.51496188690742
            ],
            [
              68.41088680146085,
              33.134540332312255
            ],
            [
              68.5,
              32.6
            ],
            [
              68.33798269926604,
              31.628148655929778
            ],
            [
              68.65702780876519,
              31.78406924519016
            ],
            [
              69.79838695663591,
              32.09469723116366
            ],
            [
              71.0,
              32.2
            ],
            [
              72.20161304336409,
              32.09469723116366
            ],
            [
              73.34297219123482,
              31.78406924519016
            ],
            [
              74.36684493003716,
              31.283692226365726
            ],
            [
              75.22189000532737,
              30.61865716780668
            ],
            [
              75.86523188667306,
              29.822311704293746
            ],
            [
              76.26461072578185,
              28.93458792261652
            ],
            [
              76.4,
              28.0
            ],
            [
              76.26461072578185,
              27.065412077383478
            ],
            [
              75.86523188667306,
              26.177688295706258
            ],
            [
              75.22189000532737,
              25.38134283219332
            ],
            [
              74.36684493003716,
              24.716307773634274
            ],
            [
              73.45497316117512,
              24.270666767714857
            ],
            [
              73.42561943383403,
              24.204134800059236
            ],
            [
              72.73462259831457,
              23.331946911449826
            ],
            [
              71.81624085078066,
              22.603575180647063
            ],
            [
              70.71652568688184,
              22.05554320764887
            ],
            [
              69.49062141694662,
              21.71533160396361
            ],
            [
              68.2,
              21.6
            ],
            [
              66.90937858305338,
              21.715331603963612
            ],
            [
              65.68347431311817,
              22.055543207648874
            ],
            [
              64.58375914921935,
              22.603575180647063
            ],
            [
              63.66537740168543,
              23.331946911449823
            ],
            [
              62.97438056616597,
              24.204134800059233
            ],
            [
              62.712123620705455,
              24.79855575417135
            ],
            [
              60.29131421720459,
              23.77050509455629
            ],
            [
              57.226553542366545,
              23.045706460618128
            ],
            [
              56.37387822525646,
              22.980774070229252
            ],
            [
              56.5,
              22.0
            ],
            [
              56.236743077909146,
              19.952807407601906
            ],
            [
              55.460173112975404,
              18.00826960011847
            ],
            [
              54.20923056591431,
              16.26389382289965
            ],
            [
              52.5466429195167,
              14.807150361294125
            ],
            [
              50.55577926073436,
              13.711086415297743
            ],
            [
              48.33646980654129,
              13.03066320792722
            ],
            [
              46.0,
              12.8
            ],
            [
              43.6635301934587,
              13.030663207927223
            ],
            [
              41.44422073926564,
              13.711086415297746
            ],
            [
              39.45335708048329,
              14.807150361294127
            ],
            [
              37.79076943408569,
              16.26389382289965
            ],
            [
              36.5398268870246,
              18.008269600118467
            ],
            [
              35.76325692209085,
              19.952807407601913
            ],
            [
              35.5,
              22.0
            ],
            [
              35.501520218372356,
              22.011821834601726
            ],
            [
              35.364428613011135,
              21.870813326230184
            ],
            [
              34.0371861738229,
              21.01302415110258
            ],
            [
              32.5576465376942,
              20.480519032290868
            ],
            [
              31.0,
              20.3
            ],
            [
              29.442353462305796,
              20.48051903229087
            ],
            [
              27.96281382617709,
              21.013024151102584
            ],
            [
              26.635571386988865,
              21.870813326230184
            ],
            [
              25.527179622723793,
              23.010873426617117
            ],
            [
              24.693217924683065,
              24.376037078353583
            ],
            [
              24.175504614727235,
              25.89784927551454
            ],
            [
              24.0,
              27.5
            ],
            [
              24.17255701533794,
              29.075242608682395
            ],
            [
              23.19007918252886,
              28.736705849131774
            ],
            [
              21.879629790529144,
              28.4852450985818
            ],
            [
              20.5,
              28.400000000000002
            ],
            [
              19.12037020947085,
              28.4852450985818
            ],
            [
              18.625686800288964,
              28.58016937579305
            ],
            [
              17.18801178249924,
              28.17631830197081
            ],
            [
              15.391427938628663,
              27.89527393370907
            ],
            [
              13.499999999999998,
              27.8
            ],
            [
              11.608572061371326,
              27.89527393370907
            ],
            [
              9.811988217500755,
              28.17631830197081
            ],
            [
              8.200336684200764,
              28.62904036662149
            ],
            [
              6.854432399021748,
              29.230738752936812
            ],
            [
              6.807231806892751,
              29.26432150420384
            ],
            [
              5.725209339563134,
              29.105302768836342
            ],
            [
              3.4999999999999982,
              29.000000000000004
            ],
            [
              1.274790660436854,
              29.105302768836342
            ],
            [
              -0.8388373911755824,
              29.415930754809843
            ],
            [
              -1.679333267893577,
              29.637740550892406
            ],
            [
              -3.66353019345871,
              29.320346021527246
            ],
            [
              -6.000000000000002,
              29.2
            ],
            [
              -8.336469806541302,
              29.320346021527246
            ],
            [
              -10.555779260734361,
              29.675349434068387
            ],
            [
              -12.546642919516703,
              30.24720888415346
            ],
            [
              -14.20923056591431,
              31.00724895107808
            ],
            [
              -15.4601731129754,
              31.91735805223572
            ],
            [
              -16.23674307790915,
              32.9318995170097
            ],
            [
              -16.5,
              34.0
            ],
            [
              -16.23674307790915,
              35.06810048299031
            ],
            [
              -15.4601731129754,
              36.08264194776428
            ],
            [
              -14.209230565914309,
              36.992751048921924
            ],
            [
              -12.546642919516701,
              37.75279111584654
            ],
            [
              -10.980297990164596,
              38.202711001616464
            ],
            [
              -11.129509802836402,
              38.55388276984464
            ],
            [
              -11.3,
              39.8
            ],
            [
              -11.129509802836402,
              41.04611723015535
            ],
            [
              -10.626588301736449,
              42.229748939058325
            ],
            [
              -9.8164540807826,
              43.291542890408905
            ],
            [
              -8.739730652639388,
              44.178256301820966
            ],
            [
              -7.4504094259993945,
              44.84542566025355
            ],
            [
              -6.013142350902937,
              45.25959630821821
            ],
            [
              -4.5,
              45.4
            ],
            [
              -2.986857649097062,
              45.25959630821821
            ],
            [
              -1.5495905740006046,
              44.84542566025355
            ],
            [
              -0.26026934736061147,
              44.178256301820966
            ],
            [
              0.8164540807826022,
              43.291542890408905
            ],
            [
              1.62658830173645,
              42.229748939058325
            ],
            [
              2.1295098028364006,
              41.04611723015536
            ],
            [
              2.3,
              39.8
            ],
            [
              2.1295098028363997,
              38.553882769844634
            ],
            [
              1.6265883017364517,
              37.370251060941676
            ],
            [
              1.5799603830035378,
              37.309138666483896
            ],
            [
              3.5000000000000004,
              37.400000000000006
            ],
            [
              5.725209339563144,
              37.29469723116366
            ],
            [
              7.8388373911755815,
              36.98406924519016
            ],
            [
              9.734898018587335,
              36.483692226365726
            ],
            [
              11.318314824680298,
              35.818657167806684
            ],
            [
              12.053642505377281,
              35.327144901876515
            ],
            [
              13.5,
              35.4
            ],
            [
              15.391427938628674,
              35.30472606629093
            ],
            [
              17.188011782499245,
              35.02368169802919
            ],
            [
              17.787042023152175,
              34.855410702883425
            ],
            [
              17.80992081747114,
              34.86329415086823
            ],
            [
              19.120370209470853,
              35.1147549014182
            ],
            [
              20.5,
              35.2
            ],
            [
              21.87962979052915,
              35.1147549014182
            ],
            [
              23.190079182528862,
              34.86329415086823
            ],
            [
              24.365636771524148,
              34.4582270403913
            ],
            [
              25.347355191301784,
              33.919865326319695
            ],
            [
              26.086006980995,
              33.275204712999695
            ],
            [
              26.36002348343244,
              32.84576597296892
            ],
            [
              26.635571386988865,
              33.129186673769816
            ],
            [
              27.962813826177094,
              33.986975848897416
            ],
            [
              29.4423534623058,
              34.51948096770913
            ]
          ]
        ]
      }
    },
    {
      "type": "Feature",
      "properties": {
        "id": "zoroastrian",
        "style": "hatch",
        "year": 800
      },
      "geometry": {
        "type": "Polygon",
        "coordinates": [
          [
            [
              62.0,
              32.4
            ],
            [
              61.79942329745459,
              33.623865136759726
            ],
            [
              61.20775094321935,
              34.786360565146566
            ],
            [
              60.254651859744236,
              35.82919391022303
            ],
            [
              58.98791841486987,
              36.700073153574166
            ],
            [
              57.471069912940465,
              37.355328773463306
            ],
            [
              55.780167471650515,
              37.76210351700003
            ],
            [
              54.0,
              37.9
            ],
            [
              52.219832528349485,
              37.76210351700003
            ],
            [
              50.528930087059535,
              37.355328773463306
            ],
            [
              49.01208158513013,
              36.700073153574166
            ],
            [
              47.745348140255764,
              35.82919391022303
            ],
            [
              46.79224905678065,
              34.786360565146566
            ],
            [
              46.20057670254541,
              33.623865136759726
            ],
            [
              46.0,
              32.4
            ],
            [
              46.20057670254541,
              31.17613486324027
            ],
            [
              46.79224905678065,
              30.01363943485343
            ],
            [
              47.745348140255764,
              28.970806089776964
            ],
            [
              49.01208158513013,
              28.099926846425834
            ],
            [
              50.528930087059535,
              27.444671226536695
            ],
            [
              52.219832528349485,
              27.03789648299997
            ],
            [
              54.0,
              26.9
            ],
            [
              55.78016747165051,
              27.03789648299997
            ],
            [
              57.471069912940465,
              27.44467122653669
            ],
            [
              58.98791841486987,
              28.099926846425834
            ],
            [
              60.254651859744236,
              28.970806089776964
            ],
            [
              61.20775094321935,
              30.01363943485343
            ],
            [
              61.79942329745459,
              31.176134863240268
            ],
            [
              62.0,
              32.4
            ]
          ]
        ]
      }
    },
    {
      "type": "Feature",
      "properties": {
        "id": "buddhist",
        "style": "hatch",
        "year": 800
      },
      "geometry": {
        "type": "Polygon",
        "coordinates": [
          [
            [
              116.5,
              33.5
            ],
            [
              116.33703142918185,
              34.39008373582526
            ],
            [
              115.85629764136573,
              35.23553495647023
            ],
            [
              115.0819046360422,
              35.99395920743493
            ],
            [
              114.05268371208177,
              36.62732592987212
            ],
            [
              112.82024430426412,
              37.103875471609676
            ],
            [
              111.44638607071604,
              37.3997116487273
            ],
            [
              110.0,
              37.5
            ],
            [
              108.55361392928396,
              37.3997116487273
            ],
            [
              107.17975569573588,
              37.103875471609676
            ],
            [
              105.94731628791823,
              36.62732592987212
            ],
            [
              104.9180953639578,
              35.99395920743493
            ],
            [
              104.14370235863427,
              35.23553495647023
            ],
            [
              103.66296857081815,
              34.39008373582526
            ],
            [
              103.5,
              33.5
            ],
            [
              103.66296857081815,
              32.60991626417474
            ],
            [
              104.14370235863427,
              31.764465043529768
            ],
            [
              104.9180953639578,
              31.006040792565067
            ],
            [
              105.94731628791823,
              30.372674070127882
            ],
            [
              107.17975569573588,
              29.896124528390324
            ],
            [
              108.55361392928396,
              29.600288351272706
            ],
            [
              110.0,
              29.5
            ],
            [
              111.44638607071603,
              29.600288351272706
            ],
            [
              112.82024430426412,
              29.896124528390324
            ],
            [
              114.05268371208177,
              30.37267407012788
            ],
            [
              115.0819046360422,
              31.006040792565067
            ],
            [
              115.85629764136573,
              31.76446504352977
            ],
            [
              116.33703142918185,
              32.60991626417474
            ],
            [
              116.5,
              33.5
            ]
          ]
        ]
      }
    },
    {
      "type": "Feature",
      "properties": {
        "id": "jewish",
        "style": "spot",
        "year": 800
      },
      "geometry": {
        "type": "MultiPolygon",
        "coordinates": [
          [
            [
              [
                30.262368169802922,
                31.078512553047084
              ],
              [
                30.217095963337854,
                31.025422855479555
              ],
              [
                30.15692612470632,
                30.98108718490895
              ],
              [
                30.084875820864674,
                30.94772871698732
              ],
              [
                30.0045579549034,
                30.92702018458909
              ],
              [
                29.92,
                30.919999999999998
              ],
              [
                29.835442045096602,
                30.92702018458909
              ],
              [
                29.75512417913533,
                30.94772871698732
              ],
              [
                29.683073875293683,
                30.98108718490895
              ],
              [
                29.62290403666215,
                31.025422855479555
              ],
              [
                29.57763183019708,
                31.078512553047084
              ],
              [
                29.54952739337091,
                31.137694138492233
              ],
              [
                29.540000000000003,
                31.2
              ],
              [
                29.54952739337091,
                31.262305861507766
              ],
              [
                29.57763183019708,
                31.321487446952915
              ],
              [
                29.62290403666215,
                31.374577144520444
              ],
              [
                29.683073875293683,
                31.418912815091048
              ],
              [
                29.75512417913533,
                31.452271283012678
              ],
              [
                29.835442045096602,
                31.47297981541091
              ],
              [
                29.92,
                31.48
              ],
              [
                30.0045579549034,
                31.47297981541091
              ],
              [
                30.084875820864674,
                31.452271283012678
              ],
              [
                30.15692612470632,
                31.418912815091048
              ],
              [
                30.217095963337854,
                31.374577144520444
              ],
              [
                30.262368169802922,
                31.321487446952915
              ],
              [
                30.290472606629095,
                31.262305861507766
              ],
              [
                30.3,
                31.2
              ],
              [
                30.290472606629095,
                31.137694138492233
              ],
              [
                30.262368169802922,
                31.078512553047084
              ]
            ]
          ],
          [
            [
              [
                35.63000731535742,
                31.23238264860595
              ],
              [
                35.54291939102231,
                31.113626388148976
              ],
              [
                35.43863605651466,
                31.024273349073184
              ],
              [
                35.32238651367597,
                30.96880406586363
              ],
              [
                35.2,
                30.95
              ],
              [
                35.07761348632403,
                30.968804065863633
              ],
              [
                34.961363943485345,
                31.024273349073184
              ],
              [
                34.8570806089777,
                31.113626388148976
              ],
              [
                34.76999268464259,
                31.23238264860595
              ],
              [
                34.704467122653675,
                31.37458719566183
              ],
              [
                34.663789648299996,
                31.533109299532764
              ],
              [
                34.650000000000006,
                31.7
              ],
              [
                34.663789648299996,
                31.866890700467234
              ],
              [
                34.704467122653675,
                32.02541280433817
              ],
              [
                34.76999268464259,
                32.16761735139405
              ],
              [
                34.8570806089777,
                32.28637361185102
              ],
              [
                34.961363943485345,
                32.375726650926815
              ],
              [
                35.07761348632403,
                32.43119593413637
              ],
              [
                35.2,
                32.45
              ],
              [
                35.32238651367597,
                32.43119593413637
              ],
              [
                35.43863605651466,
                32.375726650926815
              ],
              [
                35.54291939102231,
                32.28637361185102
              ],
              [
                35.63000731535742,
                32.16761735139405
              ],
              [
                35.69553287734633,
                32.02541280433817
              ],
              [
                35.73621035170001,
                31.866890700467234
              ],
              [
                35.75,
                31.7
              ],
              [
                35.73621035170001,
                31.533109299532764
              ],
              [
                35.69553287734633,
                31.37458719566183
              ],
              [
                35.63000731535742,
                31.23238264860595
              ]
            ]
          ],
          [
            [
              [
                45.036373611851026,
                32.157080608977694
              ],
              [
                44.91761735139405,
                32.069992684642585
              ],
              [
                44.775412804338174,
                32.00446712265367
              ],
              [
                44.61689070046724,
                31.963789648299997
              ],
              [
                44.45,
                31.95
              ],
              [
                44.28310929953277,
                31.963789648299997
              ],
              [
                44.12458719566183,
                32.00446712265367
              ],
              [
                43.982382648605956,
                32.069992684642585
              ],
              [
                43.86362638814898,
                32.157080608977694
              ],
              [
                43.77427334907319,
                32.26136394348534
              ],
              [
                43.71880406586364,
                32.37761348632403
              ],
              [
                43.7,
                32.5
              ],
              [
                43.71880406586364,
                32.62238651367597
              ],
              [
                43.77427334907319,
                32.73863605651466
              ],
              [
                43.86362638814898,
                32.842919391022306
              ],
              [
                43.982382648605956,
                32.930007315357415
              ],
              [
                44.12458719566183,
                32.99553287734633
              ],
              [
                44.28310929953277,
                33.03621035170001
              ],
              [
                44.45,
                33.05
              ],
              [
                44.61689070046724,
                33.03621035170001
              ],
              [
                44.775412804338174,
                32.99553287734633
              ],
              [
                44.91761735139405,
                32.930007315357415
              ],
              [
                45.036373611851026,
                32.842919391022306
              ],
              [
                45.125726650926815,
                32.73863605651466
              ],
              [
                45.18119593413637,
                32.62238651367597
              ],
              [
                45.2,
                32.5
              ],
              [
                45.18119593413637,
                32.37761348632403
              ],
              [
                45.125726650926815,
                32.26136394348534
              ],
              [
                45.036373611851026,
                32.157080608977694
              ]
            ]
          ],
          [
            [
              [
                22.130290660370726,
                32.72454557739414
              ],
              [
                22.09454944474041,
                32.68283224359108
              ],
              [
                22.04704694055762,
                32.647997073857034
              ],
              [
                21.990165121735266,
                32.621786849061465
              ],
              [
                21.926756280186893,
                32.60551585932
              ],
              [
                21.86,
                32.6
              ],
              [
                21.793243719813105,
                32.60551585932
              ],
              [
                21.729834878264732,
                32.621786849061465
              ],
              [
                21.672953059442378,
                32.647997073857034
              ],
              [
                21.62545055525959,
                32.68283224359108
              ],
              [
                21.589709339629273,
                32.72454557739414
              ],
              [
                21.567521626345453,
                32.77104539452961
              ],
              [
                21.56,
                32.82
              ],
              [
                21.567521626345453,
                32.86895460547039
              ],
              [
                21.589709339629273,
                32.91545442260586
              ],
              [
                21.62545055525959,
                32.95716775640892
              ],
              [
                21.672953059442378,
                32.992002926142966
              ],
              [
                21.729834878264732,
                33.018213150938536
              ],
              [
                21.793243719813105,
                33.03448414068
              ],
              [
                21.86,
                33.04
              ],
              [
                21.926756280186893,
                33.03448414068
              ],
              [
                21.990165121735266,
                33.018213150938536
              ],
              [
                22.04704694055762,
                32.992002926142966
              ],
              [
                22.09454944474041,
                32.95716775640892
              ],
              [
                22.130290660370726,
                32.91545442260586
              ],
              [
                22.152478373654546,
                32.86895460547039
              ],
              [
                22.16,
                32.82
              ],
              [
                22.152478373654546,
                32.77104539452961
              ],
              [
                22.130290660370726,
                32.72454557739414
              ]
            ]
          ],
          [
            [
              [
                28.29018607438977,
                38.34036244755391
              ],
              [
                28.239516736594794,
                38.30236044420767
              ],
              [
                28.178842796517618,
                38.27376747170342
              ],
              [
                28.11120669886602,
                38.25601730107636
              ],
              [
                28.04,
                38.25
              ],
              [
                27.968793301133978,
                38.25601730107636
              ],
              [
                27.90115720348238,
                38.27376747170342
              ],
              [
                27.840483263405204,
                38.30236044420767
              ],
              [
                27.78981392561023,
                38.34036244755391
              ],
              [
                27.751689962271225,
                38.385867902611785
              ],
              [
                27.728023068101816,
                38.43659497585049
              ],
              [
                27.72,
                38.49
              ],
              [
                27.728023068101816,
                38.543405024149514
              ],
              [
                27.751689962271225,
                38.59413209738822
              ],
              [
                27.78981392561023,
                38.639637552446096
              ],
              [
                27.840483263405204,
                38.67763955579233
              ],
              [
                27.90115720348238,
                38.70623252829658
              ],
              [
                27.968793301133978,
                38.72398269892364
              ],
              [
                28.04,
                38.730000000000004
              ],
              [
                28.11120669886602,
                38.72398269892364
              ],
              [
                28.178842796517618,
                38.70623252829658
              ],
              [
                28.239516736594794,
                38.67763955579233
              ],
              [
                28.29018607438977,
                38.639637552446096
              ],
              [
                28.328310037728773,
                38.59413209738822
              ],
              [
                28.351976931898182,
                38.543405024149514
              ],
              [
                28.36,
                38.49
              ],
              [
                28.351976931898182,
                38.43659497585049
              ],
              [
                28.328310037728773,
                38.385867902611785
              ],
              [
                28.29018607438977,
                38.34036244755391
              ]
            ]
          ],
          [
            [
              [
                12.718912815091048,
                41.76283224359108
              ],
              [
                12.674577144520445,
                41.72799707385703
              ],
              [
                12.621487446952916,
                41.70178684906146
              ],
              [
                12.562305861507769,
                41.68551585932
              ],
              [
                12.5,
                41.68
              ],
              [
                12.437694138492231,
                41.68551585932
              ],
              [
                12.378512553047084,
                41.70178684906146
              ],
              [
                12.325422855479555,
                41.72799707385703
              ],
              [
                12.281087184908952,
                41.76283224359108
              ],
              [
                12.247728716987323,
                41.80454557739414
              ],
              [
                12.22702018458909,
                41.851045394529606
              ],
              [
                12.22,
                41.9
              ],
              [
                12.22702018458909,
                41.94895460547039
              ],
              [
                12.247728716987323,
                41.99545442260586
              ],
              [
                12.281087184908952,
                42.03716775640892
              ],
              [
                12.325422855479555,
                42.072002926142964
              ],
              [
                12.378512553047084,
                42.098213150938534
              ],
              [
                12.437694138492231,
                42.11448414068
              ],
              [
                12.5,
                42.12
              ],
              [
                12.562305861507769,
                42.11448414068
              ],
              [
                12.621487446952916,
                42.098213150938534
              ],
              [
                12.674577144520445,
                42.072002926142964
              ],
              [
                12.718912815091048,
                42.03716775640892
              ],
              [
                12.752271283012677,
                41.99545442260586
              ],
              [
                12.77297981541091,
                41.94895460547039
              ],
              [
                12.78,
                41.9
              ],
              [
                12.77297981541091,
                41.851045394529606
              ],
              [
                12.752271283012677,
                41.80454557739414
              ],
              [
                12.718912815091048,
                41.76283224359108
              ]
            ]
          ]
        ]
      }
    }
  ]
}